start=new Date('2021-09-14T00:00:00.000Z').valueOf();
sats=[{"FILE":"3115005","ARG_OF_PERICENTER":"93.3700","MEAN_MOTION_DDOT":"0.0000000000000","ELEMENT_SET_NO":"999","COUNTRY_CODE":"US","RA_OF_ASC_NODE":"44.2910","NORAD_CAT_ID":"47816","CENTER_NAME":"EARTH","OBJECT_ID":"2021-018AF","CLASSIFICATION_TYPE":"U","PERIOD":"95.592","LAUNCH_DATE":"2021-03-11","BSTAR":"0.00001433800000","INCLINATION":"53.0564","TLE_LINE1":"1 47816U 21018AF  21256.82049822 -.00000068  00000-0  14338-4 0  9997","SITE":"AFETR","REF_FRAME":"TEME","SEMIMAJOR_AXIS":"6925.344","MEAN_ANOMALY":"266.7493","EPHEMERIS_TYPE":"0","MEAN_MOTION_DOT":"-0.00000068","MEAN_MOTION":"15.06401632","APOAPSIS":"548.445","TLE_LINE2":"2 47816  53.0564  44.2910 0001785  93.3700 266.7493 15.06401632 29729","ECCENTRICITY":"0.00017850","OBJECT_NAME":"STARLINK-2399","TIME_SYSTEM":"UTC","REV_AT_EPOCH":"2972","PERIAPSIS":"545.972","OBJECT_TYPE":"PAYLOAD","GP_ID":"184664325","MEAN_ELEMENT_THEORY":"SGP4","RCS_SIZE":"LARGE","EPOCH":"2021-09-13T19:41:31.046208","DECAY_DATE":null},{"TIME_SYSTEM":"UTC","OBJECT_NAME":"STARLINK-2400","REV_AT_EPOCH":"2972","OBJECT_TYPE":"PAYLOAD","PERIAPSIS":"545.930","GP_ID":"184664058","MEAN_ELEMENT_THEORY":"SGP4","DECAY_DATE":null,"RCS_SIZE":"LARGE","EPOCH":"2021-09-13T20:08:04.534368","MEAN_MOTION":"15.06387658","APOAPSIS":"548.573","TLE_LINE2":"2 47817  53.0553  44.2076 0001908  94.4022 265.7185 15.06387658 29725","ECCENTRICITY":"0.00019080","PERIOD":"95.593","CLASSIFICATION_TYPE":"U","LAUNCH_DATE":"2021-03-11","BSTAR":"-0.00001203000000","INCLINATION":"53.0553","SITE":"AFETR","TLE_LINE1":"1 47817U 21018AG  21256.83894137 -.00000461  00000-0 -12030-4 0  9991","EPHEMERIS_TYPE":"0","MEAN_ANOMALY":"265.7185","REF_FRAME":"TEME","SEMIMAJOR_AXIS":"6925.386","MEAN_MOTION_DOT":"-0.00000461","ARG_OF_PERICENTER":"94.4022","FILE":"3115005","MEAN_MOTION_DDOT":"0.0000000000000","RA_OF_ASC_NODE":"44.2076","COUNTRY_CODE":"US","ELEMENT_SET_NO":"999","NORAD_CAT_ID":"47817","CENTER_NAME":"EARTH","OBJECT_ID":"2021-018AG"},{"INCLINATION":"53.0561","SITE":"AFETR","TLE_LINE1":"1 47818U 21018AH  21256.79976692 -.00000762  00000-0 -32231-4 0  9993","PERIOD":"95.592","CLASSIFICATION_TYPE":"U","BSTAR":"-0.00003223100000","LAUNCH_DATE":"2021-03-11","MEAN_MOTION_DOT":"-0.00000762","EPHEMERIS_TYPE":"0","MEAN_ANOMALY":"263.6508","REF_FRAME":"TEME","SEMIMAJOR_AXIS":"6925.345","MEAN_MOTION_DDOT":"0.0000000000000","COUNTRY_CODE":"US","RA_OF_ASC_NODE":"49.3847","ELEMENT_SET_NO":"999","ARG_OF_PERICENTER":"96.4674","FILE":"3115005","OBJECT_ID":"2021-018AH","NORAD_CAT_ID":"47818","CENTER_NAME":"EARTH","OBJECT_TYPE":"PAYLOAD","PERIAPSIS":"546.038","GP_ID":"184662823","TIME_SYSTEM":"UTC","OBJECT_NAME":"STARLINK-2401","REV_AT_EPOCH":"2965","DECAY_DATE":null,"RCS_SIZE":"LARGE","EPOCH":"2021-09-13T19:11:39.861888","MEAN_ELEMENT_THEORY":"SGP4","APOAPSIS":"548.382","MEAN_MOTION":"15.06401123","TLE_LINE2":"2 47818  53.0561  49.3847 0001692  96.4674 263.6508 15.06401123 29654","ECCENTRICITY":"0.00016920"},{"ECCENTRICITY":"0.00017660","TLE_LINE2":"2 47819  53.0582  44.4927 0001766 104.9101 255.2084 15.06395911 29782","APOAPSIS":"548.449","MEAN_MOTION":"15.06395911","DECAY_DATE":null,"EPOCH":"2021-09-13T18:37:49.689120","RCS_SIZE":"MEDIUM","MEAN_ELEMENT_THEORY":"SGP4","GP_ID":"184663073","OBJECT_TYPE":"PAYLOAD","PERIAPSIS":"546.003","REV_AT_EPOCH":"2978","TIME_SYSTEM":"UTC","OBJECT_NAME":"STARLINK-2402","OBJECT_ID":"2021-018AJ","CENTER_NAME":"EARTH","NORAD_CAT_ID":"47819","COUNTRY_CODE":"US","RA_OF_ASC_NODE":"44.4927","ELEMENT_SET_NO":"999","MEAN_MOTION_DDOT":"0.0000000000000","FILE":"3115005","ARG_OF_PERICENTER":"104.9101","MEAN_MOTION_DOT":"0.00000017","EPHEMERIS_TYPE":"0","MEAN_ANOMALY":"255.2084","SEMIMAJOR_AXIS":"6925.361","REF_FRAME":"TEME","SITE":"AFETR","TLE_LINE1":"1 47819U 21018AJ  21256.77626955  .00000017  00000-0  20021-4 0  9991","INCLINATION":"53.0582","BSTAR":"0.00002002100000","LAUNCH_DATE":"2021-03-11","PERIOD":"95.592","CLASSIFICATION_TYPE":"U"},{"SEMIMAJOR_AXIS":"6925.346","REF_FRAME":"TEME","MEAN_ANOMALY":"268.7164","EPHEMERIS_TYPE":"0","MEAN_MOTION_DOT":"0.00001514","BSTAR":"0.00012052000000","LAUNCH_DATE":"2021-03-11","CLASSIFICATION_TYPE":"U","PERIOD":"95.592","TLE_LINE1":"1 47820U 21018AK  21256.82326399  .00001514  00000-0  12052-3 0  9995","SITE":"AFETR","INCLINATION":"53.0564","CENTER_NAME":"EARTH","NORAD_CAT_ID":"47820","OBJECT_ID":"2021-018AK","ARG_OF_PERICENTER":"91.4000","FILE":"3115005","ELEMENT_SET_NO":"999","COUNTRY_CODE":"US","RA_OF_ASC_NODE":"54.2825","MEAN_MOTION_DDOT":"0.0000000000000","MEAN_ELEMENT_THEORY":"SGP4","RCS_SIZE":"LARGE","EPOCH":"2021-09-13T19:45:30.008736","DECAY_DATE":null,"REV_AT_EPOCH":"2964","OBJECT_NAME":"STARLINK-2403","TIME_SYSTEM":"UTC","GP_ID":"184663825","PERIAPSIS":"546.149","OBJECT_TYPE":"PAYLOAD","ECCENTRICITY":"0.00015330","TLE_LINE2":"2 47820  53.0564  54.2825 0001533  91.4000 268.7164 15.06400997 29644","MEAN_MOTION":"15.06400997","APOAPSIS":"548.272"},{"INCLINATION":"53.0569","TLE_LINE1":"1 47821U 21018AL  21256.80112092  .00001553  00000-0  12313-3 0  9990","SITE":"AFETR","CLASSIFICATION_TYPE":"U","PERIOD":"95.592","LAUNCH_DATE":"2021-03-11","BSTAR":"0.00012313000000","MEAN_MOTION_DOT":"0.00001553","SEMIMAJOR_AXIS":"6925.351","REF_FRAME":"TEME","MEAN_ANOMALY":"267.6427","EPHEMERIS_TYPE":"0","MEAN_MOTION_DDOT":"0.0000000000000","ELEMENT_SET_NO":"999","COUNTRY_CODE":"US","RA_OF_ASC_NODE":"44.3843","ARG_OF_PERICENTER":"92.4768","FILE":"3115005","OBJECT_ID":"2021-018AL","NORAD_CAT_ID":"47821","CENTER_NAME":"EARTH","PERIAPSIS":"545.974","OBJECT_TYPE":"PAYLOAD","GP_ID":"184664559","OBJECT_NAME":"STARLINK-2406","TIME_SYSTEM":"UTC","REV_AT_EPOCH":"2972","RCS_SIZE":"LARGE","EPOCH":"2021-09-13T19:13:36.847488","DECAY_DATE":null,"MEAN_ELEMENT_THEORY":"SGP4","APOAPSIS":"548.459","MEAN_MOTION":"15.06399133","TLE_LINE2":"2 47821  53.0569  44.3843 0001794  92.4768 267.6427 15.06399133 29729","ECCENTRICITY":"0.00017940"},{"ECCENTRICITY":"0.00015710","TLE_LINE2":"2 47822  53.0558  54.0283 0001571  90.9849 269.1320 15.06389413 29606","APOAPSIS":"548.334","MEAN_MOTION":"15.06389413","RCS_SIZE":"LARGE","EPOCH":"2021-09-13T21:05:07.346400","DECAY_DATE":null,"MEAN_ELEMENT_THEORY":"SGP4","GP_ID":"184663324","PERIAPSIS":"546.158","OBJECT_TYPE":"PAYLOAD","REV_AT_EPOCH":"2960","OBJECT_NAME":"STARLINK-2407","TIME_SYSTEM":"UTC","OBJECT_ID":"2021-018AM","CENTER_NAME":"EARTH","NORAD_CAT_ID":"47822","ELEMENT_SET_NO":"999","RA_OF_ASC_NODE":"54.0283","COUNTRY_CODE":"US","MEAN_MOTION_DDOT":"0.0000000000000","FILE":"3115005","ARG_OF_PERICENTER":"90.9849","MEAN_MOTION_DOT":"0.00000473","SEMIMAJOR_AXIS":"6925.381","REF_FRAME":"TEME","EPHEMERIS_TYPE":"0","MEAN_ANOMALY":"269.1320","TLE_LINE1":"1 47822U 21018AM  21256.87855725  .00000473  00000-0  50632-4 0  9992","SITE":"AFETR","INCLINATION":"53.0558","BSTAR":"0.00005063200000","LAUNCH_DATE":"2021-03-11","PERIOD":"95.593","CLASSIFICATION_TYPE":"U"},{"NORAD_CAT_ID":"47823","CENTER_NAME":"EARTH","OBJECT_ID":"2021-018AN","FILE":"3115005","ARG_OF_PERICENTER":"88.1170","MEAN_MOTION_DDOT":"0.0000000000000","ELEMENT_SET_NO":"999","COUNTRY_CODE":"US","RA_OF_ASC_NODE":"44.5582","REF_FRAME":"TEME","SEMIMAJOR_AXIS":"6925.351","MEAN_ANOMALY":"271.9996","EPHEMERIS_TYPE":"0","MEAN_MOTION_DOT":"0.00001307","CLASSIFICATION_TYPE":"U","PERIOD":"95.592","BSTAR":"0.00010666000000","LAUNCH_DATE":"2021-03-11","INCLINATION":"53.0566","TLE_LINE1":"1 47823U 21018AN  21256.76151913  .00001307  00000-0  10666-3 0  9998","SITE":"AFETR","TLE_LINE2":"2 47823  53.0566  44.5582 0001548  88.1170 271.9996 15.06399243 29727","ECCENTRICITY":"0.00015480","MEAN_MOTION":"15.06399243","APOAPSIS":"548.288","MEAN_ELEMENT_THEORY":"SGP4","RCS_SIZE":"LARGE","EPOCH":"2021-09-13T18:16:35.252832","DECAY_DATE":null,"OBJECT_NAME":"STARLINK-2408","TIME_SYSTEM":"UTC","REV_AT_EPOCH":"2972","PERIAPSIS":"546.144","OBJECT_TYPE":"PAYLOAD","GP_ID":"184663574"},{"NORAD_CAT_ID":"47824","CENTER_NAME":"EARTH","OBJECT_ID":"2021-018AP","FILE":"3115005","ARG_OF_PERICENTER":"87.3495","MEAN_MOTION_DDOT":"0.0000000000000","ELEMENT_SET_NO":"999","COUNTRY_CODE":"US","RA_OF_ASC_NODE":"44.3285","REF_FRAME":"TEME","SEMIMAJOR_AXIS":"6925.351","MEAN_ANOMALY":"272.7676","EPHEMERIS_TYPE":"0","MEAN_MOTION_DOT":"0.00000968","CLASSIFICATION_TYPE":"U","PERIOD":"95.592","LAUNCH_DATE":"2021-03-11","BSTAR":"0.00008390300000","INCLINATION":"53.0550","TLE_LINE1":"1 47824U 21018AP  21256.81681234  .00000968  00000-0  83903-4 0  9996","SITE":"AFETR","TLE_LINE2":"2 47824  53.0550  44.3285 0001591  87.3495 272.7676 15.06399186 29728","ECCENTRICITY":"0.00015910","MEAN_MOTION":"15.06399186","APOAPSIS":"548.318","MEAN_ELEMENT_THEORY":"SGP4","RCS_SIZE":"LARGE","EPOCH":"2021-09-13T19:36:12.586176","DECAY_DATE":null,"OBJECT_NAME":"STARLINK-2409","TIME_SYSTEM":"UTC","REV_AT_EPOCH":"2972","PERIAPSIS":"546.114","OBJECT_TYPE":"PAYLOAD","GP_ID":"184664326"},{"CENTER_NAME":"EARTH","NORAD_CAT_ID":"47825","OBJECT_ID":"2021-018AQ","ARG_OF_PERICENTER":"97.9160","FILE":"3115005","RA_OF_ASC_NODE":"43.9198","COUNTRY_CODE":"US","ELEMENT_SET_NO":"999","MEAN_MOTION_DDOT":"0.0000000000000","EPHEMERIS_TYPE":"0","MEAN_ANOMALY":"262.2060","SEMIMAJOR_AXIS":"6925.363","REF_FRAME":"TEME","MEAN_MOTION_DOT":"-0.00000243","LAUNCH_DATE":"2021-03-11","BSTAR":"0.00000257770000","CLASSIFICATION_TYPE":"U","PERIOD":"95.592","SITE":"AFETR","TLE_LINE1":"1 47825U 21018AQ  21256.90159782 -.00000243  00000-0  25777-5 0  9998","INCLINATION":"53.0550","ECCENTRICITY":"0.00020320","TLE_LINE2":"2 47825  53.0550  43.9198 0002032  97.9160 262.2060 15.06395337 29741","MEAN_MOTION":"15.06395337","APOAPSIS":"548.635","MEAN_ELEMENT_THEORY":"SGP4","DECAY_DATE":null,"RCS_SIZE":"LARGE","EPOCH":"2021-09-13T21:38:18.051648","REV_AT_EPOCH":"2974","TIME_SYSTEM":"UTC","OBJECT_NAME":"STARLINK-2410","GP_ID":"184664059","OBJECT_TYPE":"PAYLOAD","PERIAPSIS":"545.821"}];
